{
  "type": "FeatureCollection",
  "features": [
    {
      "type": "Feature",
      "properties": {
        "norad_id": 35825,
        "name": "COSMOS 2251 DEB",
        "group": "cosmos-2251-debris",
        "lat": -59.03884366283946,
        "lon": -27.301583011330365,
        "alt_km": 766.2969922763332,
        "timestamp": "2025-12-23T20:42:37.472737+00:00",
        "meta_object_name": "COSMOS 2251 DEB",
        "meta_object_id": "1993-036ASX",
        "meta_epoch": "2025-12-14T02:36:29.406816",
        "meta_mean_motion": 13.70963524,
        "meta_eccentricity": 0.03526119,
        "meta_inclination": 74.113,
        "meta_ra_of_asc_node": 140.3902,
        "meta_arg_of_pericenter": 235.9093,
        "meta_mean_anomaly": 120.8102,
        "meta_ephemeris_type": 0,
        "meta_classification_type": "U",
        "meta_norad_cat_id": 35825,
        "meta_element_set_no": 999,
        "meta_rev_at_epoch": 82527,
        "meta_bstar": 0.0023333684,
        "meta_mean_motion_dot": 3.214e-05,
        "meta_mean_motion_ddot": 0,
        "tle_line1": "1 35825U 93036ASX 25348.10867369  .00003214  00000+0  23334-2 0  9992",
        "tle_line2": "2 35825  74.1130 140.3902 0352611 235.9093 120.8102 13.70963524825277"
      },
      "geometry": {
        "type": "Point",
        "coordinates": [
          -27.301583011330365,
          -59.03884366283946
        ]
      }
    },
    {
      "type": "Feature",
      "properties": {
        "norad_id": 35829,
        "name": "COSMOS 2251 DEB",
        "group": "cosmos-2251-debris",
        "lat": 22.043534919003584,
        "lon": 83.67262674565389,
        "alt_km": 640.8726283119122,
        "timestamp": "2025-12-23T20:42:37.472747+00:00",
        "meta_object_name": "COSMOS 2251 DEB",
        "meta_object_id": "1993-036ATB",
        "meta_epoch": "2025-12-17T00:21:46.598688",
        "meta_mean_motion": 14.76400839,
        "meta_eccentricity": 0.0005573,
        "meta_inclination": 74.0249,
        "meta_ra_of_asc_node": 90.4281,
        "meta_arg_of_pericenter": 146.0686,
        "meta_mean_anomaly": 214.0846,
        "meta_ephemeris_type": 0,
        "meta_classification_type": "U",
        "meta_norad_cat_id": 35829,
        "meta_element_set_no": 999,
        "meta_rev_at_epoch": 87838,
        "meta_bstar": 0.001494418,
        "meta_mean_motion_dot": 0.00010373,
        "meta_mean_motion_ddot": 0,
        "tle_line1": "1 35829U 93036ATB 25351.01512267  .00010373  00000+0  14944-2 0  9995",
        "tle_line2": "2 35829  74.0249  90.4281 0005573 146.0686 214.0846 14.76400839878381"
      },
      "geometry": {
        "type": "Point",
        "coordinates": [
          83.67262674565389,
          22.043534919003584
        ]
      }
    },
    {
      "type": "Feature",
      "properties": {
        "norad_id": 35830,
        "name": "COSMOS 2251 DEB",
        "group": "cosmos-2251-debris",
        "lat": 28.169993496521588,
        "lon": -104.88360484670845,
        "alt_km": 897.602276313627,
        "timestamp": "2025-12-23T20:42:37.472757+00:00",
        "meta_object_name": "COSMOS 2251 DEB",
        "meta_object_id": "1993-036ATC",
        "meta_epoch": "2025-12-17T01:01:27.071616",
        "meta_mean_motion": 14.24015017,
        "meta_eccentricity": 0.01218819,
        "meta_inclination": 73.8614,
        "meta_ra_of_asc_node": 258.6041,
        "meta_arg_of_pericenter": 226.0627,
        "meta_mean_anomaly": 133.0413,
        "meta_ephemeris_type": 0,
        "meta_classification_type": "U",
        "meta_norad_cat_id": 35830,
        "meta_element_set_no": 999,
        "meta_rev_at_epoch": 61325,
        "meta_bstar": 0.00082142349,
        "meta_mean_motion_dot": 2.01e-05,
        "meta_mean_motion_ddot": 0,
        "tle_line1": "1 35830U 93036ATC 25351.04267444  .00002010  00000+0  82142-3 0  9999",
        "tle_line2": "2 35830  73.8614 258.6041 0121881 226.0627 133.0413 14.24015017613259"
      },
      "geometry": {
        "type": "Point",
        "coordinates": [
          -104.88360484670845,
          28.169993496521588
        ]
      }
    },
    {
      "type": "Feature",
      "properties": {
        "norad_id": 35834,
        "name": "COSMOS 2251 DEB",
        "group": "cosmos-2251-debris",
        "lat": 30.901571943065573,
        "lon": 94.8189666961516,
        "alt_km": 813.1178874448433,
        "timestamp": "2025-12-23T20:42:37.472767+00:00",
        "meta_object_name": "COSMOS 2251 DEB",
        "meta_object_id": "1993-036ATG",
        "meta_epoch": "2025-12-18T21:21:21.733632",
        "meta_mean_motion": 14.12989535,
        "meta_eccentricity": 0.01093187,
        "meta_inclination": 73.9334,
        "meta_ra_of_asc_node": 293.5971,
        "meta_arg_of_pericenter": 92.3571,
        "meta_mean_anomaly": 326.954,
        "meta_ephemeris_type": 0,
        "meta_classification_type": "U",
        "meta_norad_cat_id": 35834,
        "meta_element_set_no": 999,
        "meta_rev_at_epoch": 66350,
        "meta_bstar": 0.00038881457,
        "meta_mean_motion_dot": 7.43e-06,
        "meta_mean_motion_ddot": 0,
        "tle_line1": "1 35834U 93036ATG 25352.88983488  .00000743  00000+0  38881-3 0  9991",
        "tle_line2": "2 35834  73.9334 293.5971 0109318  92.3571 326.9540 14.12989535663505"
      },
      "geometry": {
        "type": "Point",
        "coordinates": [
          94.8189666961516,
          30.901571943065573
        ]
      }
    },
    {
      "type": "Feature",
      "properties": {
        "norad_id": 35835,
        "name": "COSMOS 2251 DEB",
        "group": "cosmos-2251-debris",
        "lat": -42.719464127899045,
        "lon": -125.56002955170351,
        "alt_km": 893.7703866883558,
        "timestamp": "2025-12-23T20:42:37.472777+00:00",
        "meta_object_name": "COSMOS 2251 DEB",
        "meta_object_id": "1993-036ATH",
        "meta_epoch": "2025-12-21T23:46:51.040128",
        "meta_mean_motion": 13.82917227,
        "meta_eccentricity": 0.02911556,
        "meta_inclination": 74.0637,
        "meta_ra_of_asc_node": 252.8841,
        "meta_arg_of_pericenter": 32.3711,
        "meta_mean_anomaly": 329.4908,
        "meta_ephemeris_type": 0,
        "meta_classification_type": "U",
        "meta_norad_cat_id": 35835,
        "meta_element_set_no": 999,
        "meta_rev_at_epoch": 61827,
        "meta_bstar": 0.0013811701,
        "meta_mean_motion_dot": 2.065e-05,
        "meta_mean_motion_ddot": 0,
        "tle_line1": "1 35835U 93036ATH 25355.99086852  .00002065  00000+0  13812-2 0  9991",
        "tle_line2": "2 35835  74.0637 252.8841 0291155  32.3711 329.4908 13.82917227618274"
      },
      "geometry": {
        "type": "Point",
        "coordinates": [
          -125.56002955170351,
          -42.719464127899045
        ]
      }
    },
    {
      "type": "Feature",
      "properties": {
        "norad_id": 35836,
        "name": "COSMOS 2251 DEB",
        "group": "cosmos-2251-debris",
        "lat": 68.6696863088585,
        "lon": -75.83342941127809,
        "alt_km": 654.2939368772486,
        "timestamp": "2025-12-23T20:42:37.472787+00:00",
        "meta_object_name": "COSMOS 2251 DEB",
        "meta_object_id": "1993-036ATJ",
        "meta_epoch": "2025-12-23T03:54:59.150304",
        "meta_mean_motion": 14.71196953,
        "meta_eccentricity": 0.00235197,
        "meta_inclination": 74.0318,
        "meta_ra_of_asc_node": 152.6866,
        "meta_arg_of_pericenter": 210.4198,
        "meta_mean_anomaly": 149.5611,
        "meta_ephemeris_type": 0,
        "meta_classification_type": "U",
        "meta_norad_cat_id": 35836,
        "meta_element_set_no": 999,
        "meta_rev_at_epoch": 63673,
        "meta_bstar": 0.0022500668,
        "meta_mean_motion_dot": 0.00013924,
        "meta_mean_motion_ddot": 0,
        "tle_line1": "1 35836U 93036ATJ 25357.16318461  .00013924  00000+0  22501-2 0  9998",
        "tle_line2": "2 35836  74.0318 152.6866 0023519 210.4198 149.5611 14.71196953636737"
      },
      "geometry": {
        "type": "Point",
        "coordinates": [
          -75.83342941127809,
          68.6696863088585
        ]
      }
    },
    {
      "type": "Feature",
      "properties": {
        "norad_id": 35837,
        "name": "COSMOS 2251 DEB",
        "group": "cosmos-2251-debris",
        "lat": 39.284106331616876,
        "lon": -157.04878285129857,
        "alt_km": 885.730291804528,
        "timestamp": "2025-12-23T20:42:37.472797+00:00",
        "meta_object_name": "COSMOS 2251 DEB",
        "meta_object_id": "1993-036ATK",
        "meta_epoch": "2025-12-20T04:59:29.154912",
        "meta_mean_motion": 13.63523619,
        "meta_eccentricity": 0.04220249,
        "meta_inclination": 73.7219,
        "meta_ra_of_asc_node": 195.2026,
        "meta_arg_of_pericenter": 114.812,
        "meta_mean_anomaly": 356.3531,
        "meta_ephemeris_type": 0,
        "meta_classification_type": "U",
        "meta_norad_cat_id": 35837,
        "meta_element_set_no": 999,
        "meta_rev_at_epoch": 58078,
        "meta_bstar": 0.0020383632,
        "meta_mean_motion_dot": 2.925e-05,
        "meta_mean_motion_ddot": 0,
        "tle_line1": "1 35837U 93036ATK 25354.20797633  .00002925  00000+0  20384-2 0  9999",
        "tle_line2": "2 35837  73.7219 195.2026 0422024 114.8120 356.3531 13.63523619580786"
      },
      "geometry": {
        "type": "Point",
        "coordinates": [
          -157.04878285129857,
          39.284106331616876
        ]
      }
    }
  ]
}